<?xml version="1.0" encoding="UTF-8"?>
<kml xmlns="http://www.opengis.net/kml/2.2">
  <Document>
    <name>Quiqup - Coverage Area</name>
    <description/>
    <Style id="poly-000000-1200-77-nodesc-normal">
      <LineStyle>
        <color>ff000000</color>
        <width>1.2</width>
      </LineStyle>
      <PolyStyle>
        <color>4d000000</color>
        <fill>1</fill>
        <outline>1</outline>
      </PolyStyle>
      <BalloonStyle>
        <text><![CDATA[<h3>$[name]</h3>]]></text>
      </BalloonStyle>
    </Style>
    <Style id="poly-000000-1200-77-nodesc-highlight">
      <LineStyle>
        <color>ff000000</color>
        <width>1.8</width>
      </LineStyle>
      <PolyStyle>
        <color>4d000000</color>
        <fill>1</fill>
        <outline>1</outline>
      </PolyStyle>
      <BalloonStyle>
        <text><![CDATA[<h3>$[name]</h3>]]></text>
      </BalloonStyle>
    </Style>
    <StyleMap id="poly-000000-1200-77-nodesc">
      <Pair>
        <key>normal</key>
        <styleUrl>#poly-000000-1200-77-nodesc-normal</styleUrl>
      </Pair>
      <Pair>
        <key>highlight</key>
        <styleUrl>#poly-000000-1200-77-nodesc-highlight</styleUrl>
      </Pair>
    </StyleMap>
    <Style id="poly-0288D1-1200-77-nodesc-normal">
      <LineStyle>
        <color>ffd18802</color>
        <width>1.2</width>
      </LineStyle>
      <PolyStyle>
        <color>4dd18802</color>
        <fill>1</fill>
        <outline>1</outline>
      </PolyStyle>
      <BalloonStyle>
        <text><![CDATA[<h3>$[name]</h3>]]></text>
      </BalloonStyle>
    </Style>
    <Style id="poly-0288D1-1200-77-nodesc-highlight">
      <LineStyle>
        <color>ffd18802</color>
        <width>1.8</width>
      </LineStyle>
      <PolyStyle>
        <color>4dd18802</color>
        <fill>1</fill>
        <outline>1</outline>
      </PolyStyle>
      <BalloonStyle>
        <text><![CDATA[<h3>$[name]</h3>]]></text>
      </BalloonStyle>
    </Style>
    <StyleMap id="poly-0288D1-1200-77-nodesc">
      <Pair>
        <key>normal</key>
        <styleUrl>#poly-0288D1-1200-77-nodesc-normal</styleUrl>
      </Pair>
      <Pair>
        <key>highlight</key>
        <styleUrl>#poly-0288D1-1200-77-nodesc-highlight</styleUrl>
      </Pair>
    </StyleMap>
    <Style id="poly-1A237E-1200-77-nodesc-normal">
      <LineStyle>
        <color>ff7e231a</color>
        <width>1.2</width>
      </LineStyle>
      <PolyStyle>
        <color>4d7e231a</color>
        <fill>1</fill>
        <outline>1</outline>
      </PolyStyle>
      <BalloonStyle>
        <text><![CDATA[<h3>$[name]</h3>]]></text>
      </BalloonStyle>
    </Style>
    <Style id="poly-1A237E-1200-77-nodesc-highlight">
      <LineStyle>
        <color>ff7e231a</color>
        <width>1.8</width>
      </LineStyle>
      <PolyStyle>
        <color>4d7e231a</color>
        <fill>1</fill>
        <outline>1</outline>
      </PolyStyle>
      <BalloonStyle>
        <text><![CDATA[<h3>$[name]</h3>]]></text>
      </BalloonStyle>
    </Style>
    <StyleMap id="poly-1A237E-1200-77-nodesc">
      <Pair>
        <key>normal</key>
        <styleUrl>#poly-1A237E-1200-77-nodesc-normal</styleUrl>
      </Pair>
      <Pair>
        <key>highlight</key>
        <styleUrl>#poly-1A237E-1200-77-nodesc-highlight</styleUrl>
      </Pair>
    </StyleMap>
    <Style id="poly-4E342E-1200-77-nodesc-normal">
      <LineStyle>
        <color>ff2e344e</color>
        <width>1.2</width>
      </LineStyle>
      <PolyStyle>
        <color>4d2e344e</color>
        <fill>1</fill>
        <outline>1</outline>
      </PolyStyle>
      <BalloonStyle>
        <text><![CDATA[<h3>$[name]</h3>]]></text>
      </BalloonStyle>
    </Style>
    <Style id="poly-4E342E-1200-77-nodesc-highlight">
      <LineStyle>
        <color>ff2e344e</color>
        <width>1.8</width>
      </LineStyle>
      <PolyStyle>
        <color>4d2e344e</color>
        <fill>1</fill>
        <outline>1</outline>
      </PolyStyle>
      <BalloonStyle>
        <text><![CDATA[<h3>$[name]</h3>]]></text>
      </BalloonStyle>
    </Style>
    <StyleMap id="poly-4E342E-1200-77-nodesc">
      <Pair>
        <key>normal</key>
        <styleUrl>#poly-4E342E-1200-77-nodesc-normal</styleUrl>
      </Pair>
      <Pair>
        <key>highlight</key>
        <styleUrl>#poly-4E342E-1200-77-nodesc-highlight</styleUrl>
      </Pair>
    </StyleMap>
    <Style id="poly-7CB342-1200-77-nodesc-normal">
      <LineStyle>
        <color>ff42b37c</color>
        <width>1.2</width>
      </LineStyle>
      <PolyStyle>
        <color>4d42b37c</color>
        <fill>1</fill>
        <outline>1</outline>
      </PolyStyle>
      <BalloonStyle>
        <text><![CDATA[<h3>$[name]</h3>]]></text>
      </BalloonStyle>
    </Style>
    <Style id="poly-7CB342-1200-77-nodesc-highlight">
      <LineStyle>
        <color>ff42b37c</color>
        <width>1.8</width>
      </LineStyle>
      <PolyStyle>
        <color>4d42b37c</color>
        <fill>1</fill>
        <outline>1</outline>
      </PolyStyle>
      <BalloonStyle>
        <text><![CDATA[<h3>$[name]</h3>]]></text>
      </BalloonStyle>
    </Style>
    <StyleMap id="poly-7CB342-1200-77-nodesc">
      <Pair>
        <key>normal</key>
        <styleUrl>#poly-7CB342-1200-77-nodesc-normal</styleUrl>
      </Pair>
      <Pair>
        <key>highlight</key>
        <styleUrl>#poly-7CB342-1200-77-nodesc-highlight</styleUrl>
      </Pair>
    </StyleMap>
    <Style id="poly-9C27B0-1200-77-nodesc-normal">
      <LineStyle>
        <color>ffb0279c</color>
        <width>1.2</width>
      </LineStyle>
      <PolyStyle>
        <color>4db0279c</color>
        <fill>1</fill>
        <outline>1</outline>
      </PolyStyle>
      <BalloonStyle>
        <text><![CDATA[<h3>$[name]</h3>]]></text>
      </BalloonStyle>
    </Style>
    <Style id="poly-9C27B0-1200-77-nodesc-highlight">
      <LineStyle>
        <color>ffb0279c</color>
        <width>1.8</width>
      </LineStyle>
      <PolyStyle>
        <color>4db0279c</color>
        <fill>1</fill>
        <outline>1</outline>
      </PolyStyle>
      <BalloonStyle>
        <text><![CDATA[<h3>$[name]</h3>]]></text>
      </BalloonStyle>
    </Style>
    <StyleMap id="poly-9C27B0-1200-77-nodesc">
      <Pair>
        <key>normal</key>
        <styleUrl>#poly-9C27B0-1200-77-nodesc-normal</styleUrl>
      </Pair>
      <Pair>
        <key>highlight</key>
        <styleUrl>#poly-9C27B0-1200-77-nodesc-highlight</styleUrl>
      </Pair>
    </StyleMap>
    <Style id="poly-EDA29B-1200-77-nodesc-normal">
      <LineStyle>
        <color>ff9ba2ed</color>
        <width>1.2</width>
      </LineStyle>
      <PolyStyle>
        <color>4d9ba2ed</color>
        <fill>1</fill>
        <outline>1</outline>
      </PolyStyle>
      <BalloonStyle>
        <text><![CDATA[<h3>$[name]</h3>]]></text>
      </BalloonStyle>
    </Style>
    <Style id="poly-EDA29B-1200-77-nodesc-highlight">
      <LineStyle>
        <color>ff9ba2ed</color>
        <width>1.8</width>
      </LineStyle>
      <PolyStyle>
        <color>4d9ba2ed</color>
        <fill>1</fill>
        <outline>1</outline>
      </PolyStyle>
      <BalloonStyle>
        <text><![CDATA[<h3>$[name]</h3>]]></text>
      </BalloonStyle>
    </Style>
    <StyleMap id="poly-EDA29B-1200-77-nodesc">
      <Pair>
        <key>normal</key>
        <styleUrl>#poly-EDA29B-1200-77-nodesc-normal</styleUrl>
      </Pair>
      <Pair>
        <key>highlight</key>
        <styleUrl>#poly-EDA29B-1200-77-nodesc-highlight</styleUrl>
      </Pair>
    </StyleMap>
    <Style id="poly-F48FB1-1200-77-nodesc-normal">
      <LineStyle>
        <color>ffb18ff4</color>
        <width>1.2</width>
      </LineStyle>
      <PolyStyle>
        <color>4db18ff4</color>
        <fill>1</fill>
        <outline>1</outline>
      </PolyStyle>
      <BalloonStyle>
        <text><![CDATA[<h3>$[name]</h3>]]></text>
      </BalloonStyle>
    </Style>
    <Style id="poly-F48FB1-1200-77-nodesc-highlight">
      <LineStyle>
        <color>ffb18ff4</color>
        <width>1.8</width>
      </LineStyle>
      <PolyStyle>
        <color>4db18ff4</color>
        <fill>1</fill>
        <outline>1</outline>
      </PolyStyle>
      <BalloonStyle>
        <text><![CDATA[<h3>$[name]</h3>]]></text>
      </BalloonStyle>
    </Style>
    <StyleMap id="poly-F48FB1-1200-77-nodesc">
      <Pair>
        <key>normal</key>
        <styleUrl>#poly-F48FB1-1200-77-nodesc-normal</styleUrl>
      </Pair>
      <Pair>
        <key>highlight</key>
        <styleUrl>#poly-F48FB1-1200-77-nodesc-highlight</styleUrl>
      </Pair>
    </StyleMap>
    <Style id="poly-F9A825-1200-77-nodesc-normal">
      <LineStyle>
        <color>ff25a8f9</color>
        <width>1.2</width>
      </LineStyle>
      <PolyStyle>
        <color>4d25a8f9</color>
        <fill>1</fill>
        <outline>1</outline>
      </PolyStyle>
      <BalloonStyle>
        <text><![CDATA[<h3>$[name]</h3>]]></text>
      </BalloonStyle>
    </Style>
    <Style id="poly-F9A825-1200-77-nodesc-highlight">
      <LineStyle>
        <color>ff25a8f9</color>
        <width>1.8</width>
      </LineStyle>
      <PolyStyle>
        <color>4d25a8f9</color>
        <fill>1</fill>
        <outline>1</outline>
      </PolyStyle>
      <BalloonStyle>
        <text><![CDATA[<h3>$[name]</h3>]]></text>
      </BalloonStyle>
    </Style>
    <StyleMap id="poly-F9A825-1200-77-nodesc">
      <Pair>
        <key>normal</key>
        <styleUrl>#poly-F9A825-1200-77-nodesc-normal</styleUrl>
      </Pair>
      <Pair>
        <key>highlight</key>
        <styleUrl>#poly-F9A825-1200-77-nodesc-highlight</styleUrl>
      </Pair>
    </StyleMap>
    <Style id="poly-FBC02D-1200-77-nodesc-normal">
      <LineStyle>
        <color>ff2dc0fb</color>
        <width>1.2</width>
      </LineStyle>
      <PolyStyle>
        <color>4d2dc0fb</color>
        <fill>1</fill>
        <outline>1</outline>
      </PolyStyle>
      <BalloonStyle>
        <text><![CDATA[<h3>$[name]</h3>]]></text>
      </BalloonStyle>
    </Style>
    <Style id="poly-FBC02D-1200-77-nodesc-highlight">
      <LineStyle>
        <color>ff2dc0fb</color>
        <width>1.8</width>
      </LineStyle>
      <PolyStyle>
        <color>4d2dc0fb</color>
        <fill>1</fill>
        <outline>1</outline>
      </PolyStyle>
      <BalloonStyle>
        <text><![CDATA[<h3>$[name]</h3>]]></text>
      </BalloonStyle>
    </Style>
    <StyleMap id="poly-FBC02D-1200-77-nodesc">
      <Pair>
        <key>normal</key>
        <styleUrl>#poly-FBC02D-1200-77-nodesc-normal</styleUrl>
      </Pair>
      <Pair>
        <key>highlight</key>
        <styleUrl>#poly-FBC02D-1200-77-nodesc-highlight</styleUrl>
      </Pair>
    </StyleMap>
    <Style id="poly-FF5252-1200-77-nodesc-normal">
      <LineStyle>
        <color>ff5252ff</color>
        <width>1.2</width>
      </LineStyle>
      <PolyStyle>
        <color>4d5252ff</color>
        <fill>1</fill>
        <outline>1</outline>
      </PolyStyle>
      <BalloonStyle>
        <text><![CDATA[<h3>$[name]</h3>]]></text>
      </BalloonStyle>
    </Style>
    <Style id="poly-FF5252-1200-77-nodesc-highlight">
      <LineStyle>
        <color>ff5252ff</color>
        <width>1.8</width>
      </LineStyle>
      <PolyStyle>
        <color>4d5252ff</color>
        <fill>1</fill>
        <outline>1</outline>
      </PolyStyle>
      <BalloonStyle>
        <text><![CDATA[<h3>$[name]</h3>]]></text>
      </BalloonStyle>
    </Style>
    <StyleMap id="poly-FF5252-1200-77-nodesc">
      <Pair>
        <key>normal</key>
        <styleUrl>#poly-FF5252-1200-77-nodesc-normal</styleUrl>
      </Pair>
      <Pair>
        <key>highlight</key>
        <styleUrl>#poly-FF5252-1200-77-nodesc-highlight</styleUrl>
      </Pair>
    </StyleMap>
    <Folder>
      <name>Coverage Areas by Services</name>
      <Placemark>
        <name>Delivery Coverage - Dubai (Next Day/Same Day)</name>
        <styleUrl>#poly-0288D1-1200-77-nodesc</styleUrl>
        <Polygon>
          <outerBoundaryIs>
            <LinearRing>
              <tessellate>1</tessellate>
              <coordinates>
                55.3493645,25.3248384,0
                55.3382748,25.3072764,0
                55.2942737,25.2829824,0
                55.2640767,25.2927064,0
                55.242704,25.2332503,0
                55.2251189,25.2023616,0
                55.1766056,25.1331262,0
                55.1189284,25.156124,0
                55.0914631,25.1076368,0
                55.1051959,25.0802766,0
                55.0936631,25.0377079,0
                55.0937983,24.9951474,0
                55.0842525,24.9701321,0
                55.0760483,24.9576237,0
                55.0623527,24.9500947,0
                55.0178589,24.9896773,0
                55.0317259,25.0386022,0
                54.944524,25.0392245,0
                54.920488,24.9906896,0
                54.9448675,24.9528776,0
                54.8934372,24.9085192,0
                54.8575611,24.8907122,0
                54.82091,24.8612211,0
                54.7678603,24.8488611,0
                54.8017048,24.800105,0
                55.299409,24.6062777,0
                55.4953094,24.6441697,0
                55.6220539,24.716235,0
                55.6859829,24.7030044,0
                55.7927125,24.7801964,0
                55.7874828,24.8039492,0
                55.7682569,24.9104859,0
                55.6501559,24.9907944,0
                55.7373578,25.1294997,0
                55.7335406,25.1706651,0
                55.5626817,25.2283409,0
                55.3493645,25.3248384,0
              </coordinates>
            </LinearRing>
          </outerBoundaryIs>
        </Polygon>
      </Placemark>
      <Placemark>
        <name><![CDATA[Delivery Coverage - Sharjah & Ajman (Same Day & Next Day)]]></name>
        <styleUrl>#poly-FF5252-1200-77-nodesc</styleUrl>
        <Polygon>
          <outerBoundaryIs>
            <LinearRing>
              <tessellate>1</tessellate>
              <coordinates>
                55.5646276,25.2302058,0
                55.6313773,25.2085728,0
                55.735489,25.1725296,0
                55.7286225,25.1849577,0
                55.7286211,25.219124,0
                55.7293092,25.2514261,0
                55.7169496,25.2582572,0
                55.7093965,25.2756438,0
                55.7183229,25.2868197,0
                55.7306825,25.3035814,0
                55.7351446,25.3206502,0
                55.7320557,25.3296507,0
                55.7210695,25.3495092,0
                55.7090533,25.3585065,0
                55.6606448,25.3830131,0
                55.6489719,25.3830131,0
                55.6530918,25.4034831,0
                55.6400456,25.4152673,0
                55.629746,25.4338716,0
                55.6138213,25.4436566,0
                55.6118913,25.4477278,0
                55.6093581,25.4541969,0
                55.580519,25.4687658,0
                55.5602631,25.4793039,0
                55.5523668,25.4861222,0
                55.5358873,25.5140111,0
                55.5152879,25.5329099,0
                55.4779978,25.4890473,0
                55.4721024,25.4485185,0
                55.4605749,25.4341434,0
                55.4548609,25.4277587,0
                55.4532057,25.4248764,0
                55.4518952,25.4232373,0
                55.4541895,25.4226834,0
                55.4562032,25.4218858,0
                55.4562428,25.4193053,0
                55.4555958,25.416027,0
                55.4549024,25.4107882,0
                55.4546381,25.4079527,0
                55.4541162,25.4044195,0
                55.4540269,25.4023427,0
                55.4541093,25.400266,0
                55.4551598,25.3986904,0
                55.456382,25.3974249,0
                55.4575389,25.3968324,0
                55.45861,25.3969377,0
                55.4608827,25.3965002,0
                55.4631553,25.3961015,0
                55.4665642,25.395747,0
                55.4668833,25.3967107,0
                55.4668833,25.3984718,0
                55.4695656,25.3980066,0
                55.4722478,25.3972312,0
                55.4704024,25.3938971,0
                55.4600534,25.3947832,0
                55.4563991,25.3957465,0
                55.4547186,25.3967097,0
                55.4531488,25.3996337,0
                55.4523514,25.4030229,0
                55.4515718,25.4059633,0
                55.4519939,25.4102992,0
                55.4525876,25.4138597,0
                55.4527558,25.4154074,0
                55.4534389,25.4199011,0
                55.4504239,25.4205558,0
                55.4512713,25.423071,0
                55.4442436,25.4247276,0
                55.4004072,25.3879759,0
                55.362891,25.3642852,0
                55.3523064,25.3262658,0
                55.3754962,25.3167938,0
                55.4046048,25.3024399,0
                55.421935,25.2944852,0
                55.4625888,25.2776088,0
                55.5216052,25.2491072,0
                55.5646276,25.2302058,0
              </coordinates>
            </LinearRing>
          </outerBoundaryIs>
          <innerBoundaryIs>
            <LinearRing>
              <tessellate>1</tessellate>
              <coordinates>
                55.464398,25.3991143,0
                55.4633904,25.3993136,0
                55.4631814,25.3985494,0
                55.4650324,25.398278,0
                55.4659579,25.3982973,0
                55.4668833,25.3984718,0
                55.464398,25.3991143,0
              </coordinates>
            </LinearRing>
          </innerBoundaryIs>
        </Polygon>
      </Placemark>
      <Placemark>
        <name>Dubai (Same Day)</name>
      </Placemark>
      <Placemark>
        <name>Delivery Coverage - Abu Dhabi (Same Day)</name>
        <styleUrl>#poly-9C27B0-1200-77-nodesc</styleUrl>
        <Polygon>
          <outerBoundaryIs>
            <LinearRing>
              <tessellate>1</tessellate>
              <coordinates>
                54.3225276,24.4707437,0
                54.3385755,24.4480537,0
                54.3715953,24.4288517,0
                54.452204,24.4011117,0
                54.4930128,24.3892477,0
                54.5218164,24.3963658,0
                54.5279962,24.3869854,0
                54.4632169,24.3796727,0
                54.4532559,24.3401247,0
                54.4527639,24.3109327,0
                54.4898848,24.3144817,0
                54.4891448,24.3034417,0
                54.449865,24.3026717,0
                54.4362661,24.2893127,0
                54.4778711,24.2411877,0
                54.557522,24.2806259,0
                54.6200067,24.2393094,0
                54.6522791,24.1917161,0
                54.6845514,24.2198985,0
                54.7044641,24.2405616,0
                54.7580225,24.2211509,0
                54.7690088,24.2343004,0
                54.7339899,24.252457,0
                54.6866114,24.2768704,0
                54.675625,24.2981501,0
                54.7284967,24.3619677,0
                54.73193,24.3375706,0
                54.7264368,24.3194262,0
                54.8012812,24.3188005,0
                54.7758753,24.38636,0
                54.7669489,24.3751026,0
                54.7463495,24.3907376,0
                54.7593958,24.4226271,0
                54.7525293,24.4632589,0
                54.7037775,24.4632589,0
                54.7072107,24.4138739,0
                54.6570856,24.4101224,0
                54.6433527,24.4220019,0
                54.6200067,24.4476328,0
                54.6481592,24.4851321,0
                54.6365442,24.4905127,0
                54.6314632,24.5111827,0
                54.6138269,24.5238696,0
                54.5808679,24.5176224,0
                54.5651985,24.5008627,0
                54.5888344,24.4766127,0
                54.5897943,24.4626339,0
                54.5863611,24.4507582,0
                54.4909338,24.4243127,0
                54.4607869,24.4439527,0
                54.4359761,24.4647317,0
                54.4116532,24.4618647,0
                54.4245051,24.4786107,0
                54.4222528,24.5020031,0
                54.4075142,24.5114327,0
                54.3823343,24.5248817,0
                54.3513545,24.4966027,0
                54.3485965,24.4830537,0
                54.3225276,24.4707437,0
              </coordinates>
            </LinearRing>
          </outerBoundaryIs>
        </Polygon>
      </Placemark>
      <Placemark>
        <name>Delivery Coverage - Abu Dhabi (Next Day)</name>
        <styleUrl>#poly-F48FB1-1200-77-nodesc</styleUrl>
        <Polygon>
          <outerBoundaryIs>
            <LinearRing>
              <tessellate>1</tessellate>
              <coordinates>
                54.879274,24.4204385,0
                54.8483533,24.4238201,0
                54.8480099,24.4444499,0
                54.846465,24.4607014,0
                54.8481816,24.4985092,0
                54.9120397,24.4922607,0
                54.9120397,24.5060069,0
                54.9134129,24.5359933,0
                54.8880071,24.5434888,0
                54.8703073,24.5449156,0
                54.8578164,24.5635807,0
                54.8529887,24.5818946,0
                54.847495,24.6034365,0
                54.8473759,24.6053391,0
                54.7925633,24.613581,0
                54.7750539,24.616078,0
                54.7674255,24.6170207,0
                54.8224324,24.6778628,0
                54.8059529,24.6812943,0
                54.7843236,24.6889371,0
                54.7748822,24.6926803,0
                54.771964,24.6951757,0
                54.7544545,24.701414,0
                54.7499913,24.7092115,0
                54.7417516,24.7313536,0
                54.7324819,24.7566095,0
                54.7180623,24.7681444,0
                54.7165174,24.7678327,0
                54.715659,24.7690797,0
                54.7015828,24.7815486,0
                54.6881932,24.7812369,0
                54.6704151,24.7565217,0
                54.6353215,24.736031,0
                54.6562642,24.7357192,0
                54.6375132,24.7274917,0
                54.6425313,24.7045331,0
                54.6524877,24.6870654,0
                54.6373814,24.6805144,0
                54.6387547,24.6592993,0
                54.6557281,24.6595117,0
                54.6476811,24.6440097,0
                54.6286022,24.6243937,0
                54.604668,24.6134465,0
                54.6078079,24.5986091,0
                54.6364942,24.6056117,0
                54.6219319,24.573154,0
                54.6085423,24.5484855,0
                54.6171254,24.540678,0
                54.6018844,24.5194227,0
                54.581823,24.5117738,0
                54.5272227,24.5226307,0
                54.5446843,24.5381795,0
                54.5415944,24.5466117,0
                54.510352,24.5500469,0
                54.5034856,24.5706561,0
                54.4815129,24.5900132,0
                54.46675,24.5900132,0
                54.4523305,24.571905,0
                54.3960256,24.5544189,0
                54.3493337,24.5344317,0
                54.2985219,24.4981968,0
                54.282729,24.4663264,0
                54.3136281,24.4094397,0
                54.3484635,24.4051987,0
                54.393279,24.3844264,0
                54.4260027,24.3720028,0
                54.4298819,24.3470675,0
                54.4280212,24.3009484,0
                54.3872352,24.2700327,0
                54.3922442,24.2621637,0
                54.4513005,24.2145181,0
                54.4718994,24.2095095,0
                54.4924992,24.2195278,0
                54.6346349,24.1575182,0
                54.663474,24.1750594,0
                54.8461217,24.1293221,0
                54.8626012,24.1882136,0
                54.9565681,24.1590693,0
                55.0560024,24.1536717,0
                55.0642774,24.1966164,0
                54.8365086,24.2486431,0
                54.8413152,24.2739962,0
                55.0399088,24.4143069,0
                54.9732262,24.4154818,0
                54.9482602,24.4161612,0
                54.9010939,24.4183046,0
                54.879274,24.4204385,0
              </coordinates>
            </LinearRing>
          </outerBoundaryIs>
          <innerBoundaryIs>
            <LinearRing>
              <tessellate>1</tessellate>
              <coordinates>
                54.8923392,24.4190861,0
                54.885816,24.4197895,0
                54.879274,24.4204385,0
                54.8923392,24.4190861,0
              </coordinates>
            </LinearRing>
          </innerBoundaryIs>
        </Polygon>
      </Placemark>
      <Placemark>
        <name>Delivery Coverage - Al Ain (Next Day)</name>
        <styleUrl>#poly-4E342E-1200-77-nodesc</styleUrl>
        <Polygon>
          <outerBoundaryIs>
            <LinearRing>
              <tessellate>1</tessellate>
              <coordinates>
                55.7433239,24.0587637,0
                55.7588721,24.0533457,0
                55.7649206,24.0548308,0
                55.7733588,24.0567841,0
                55.7806815,24.0573257,0
                55.8023838,24.0270467,0
                55.8181526,24.0239257,0
                55.8342633,24.0157857,0
                55.8855761,24.0397956,0
                55.9603944,24.0625656,0
                56.0186573,24.0680646,0
                56.0159089,24.0938999,0
                56.000797,24.1197346,0
                55.9898272,24.1346017,0
                55.9757646,24.1482146,0
                55.9618064,24.1723446,0
                55.9727966,24.1871266,0
                55.9638164,24.2194146,0
                55.9517163,24.2161046,0
                55.9568698,24.2259426,0
                55.8727351,24.2178072,0
                55.8539438,24.2133467,0
                55.8339314,24.2033847,0
                55.7807125,24.2350357,0
                55.7620155,24.2399821,0
                55.7700844,24.2653447,0
                55.7921218,24.2813857,0
                55.808503,24.3124547,0
                55.8356179,24.3297351,0
                55.7974511,24.4439327,0
                55.7152271,24.6704868,0
                55.6738971,24.6854205,0
                55.6283751,24.7212816,0
                55.6138532,24.7136334,0
                55.6226784,24.6897666,0
                55.6978014,24.6479398,0
                55.7607149,24.4898706,0
                55.7706716,24.3732754,0
                55.7246655,24.3776535,0
                55.7026924,24.344501,0
                55.7308454,24.2894361,0
                55.6786595,24.2669027,0
                55.6402067,24.2650247,0
                55.64158,24.3188487,0
                55.6065606,24.3207259,0
                55.5859608,24.2825513,0
                55.5447615,24.2593907,0
                55.527595,24.2318427,0
                55.2971916,24.2085334,0
                55.1802988,24.1933026,0
                55.0647885,24.1986522,0
                55.0565134,24.1557075,0
                55.2764079,24.1640414,0
                55.5169518,24.1833064,0
                55.5572059,24.2011592,0
                55.5789226,24.1980258,0
                55.5966052,24.1771993,0
                55.6141136,24.1717175,0
                55.6382325,24.1664725,0
                55.6510215,24.1668624,0
                55.6277601,24.1573869,0
                55.6125688,24.1477535,0
                55.6264736,24.128485,0
                55.6521373,24.1361618,0
                55.6633814,24.1297384,0
                55.6687029,24.1131309,0
                55.6901617,24.1024755,0
                55.6844961,24.0908796,0
                55.7140223,24.0800661,0
                55.7135072,24.0581227,0
                55.7219187,24.0554578,0
                55.7310517,24.0592657,0
                55.7433239,24.0587637,0
              </coordinates>
            </LinearRing>
          </outerBoundaryIs>
          <innerBoundaryIs>
            <LinearRing>
              <tessellate>1</tessellate>
              <coordinates>
                55.7548782,24.0547132,0
                55.7511244,24.0560281,0
                55.7588721,24.0533457,0
                55.7548782,24.0547132,0
              </coordinates>
            </LinearRing>
          </innerBoundaryIs>
        </Polygon>
      </Placemark>
      <Placemark>
        <name>Delivery Coverage - Fujairah (Next Day)</name>
        <styleUrl>#poly-7CB342-1200-77-nodesc</styleUrl>
        <Polygon>
          <outerBoundaryIs>
            <LinearRing>
              <tessellate>1</tessellate>
              <coordinates>
                56.2711476,25.6712203,0
                56.2457419,25.6675071,0
                56.2388754,25.6470821,0
                56.241622,25.6309873,0
                56.224456,25.6025065,0
                56.2079766,25.5746382,0
                56.1908105,25.5665862,0
                56.1860041,25.5560558,0
                56.20523,25.5541974,0
                56.2086632,25.547383,0
                56.2096932,25.5377802,0
                56.2038567,25.5284865,0
                56.1949304,25.5201216,0
                56.1911539,25.5198117,0
                56.1787943,25.5027702,0
                56.1736445,25.4838667,0
                56.1884073,25.4376801,0
                56.1887506,25.4184563,0
                56.1822276,25.4088432,0
                56.1750178,25.4048117,0
                56.1661779,25.4048889,0
                56.1611571,25.402757,0
                56.1597516,25.3873957,0
                56.1609417,25.3790689,0
                56.1719279,25.3737956,0
                56.178451,25.371314,0
                56.1842875,25.3691425,0
                56.1705547,25.3449435,0
                56.1643749,25.3350143,0
                56.1523587,25.3148431,0
                56.1595684,25.3008764,0
                56.1674648,25.265487,0
                56.1781077,25.2459253,0
                56.1872458,25.2362246,0
                56.1956171,25.2241864,0
                56.2155297,25.2055499,0
                56.2289192,25.1865999,0
                56.2285758,25.1738614,0
                56.2447119,25.1657826,0
                56.2543248,25.1552172,0
                56.241622,25.1480695,0
                56.2282325,25.147448,0
                56.2251426,25.1573925,0
                56.2131264,25.1589463,0
                56.1959604,25.1601893,0
                56.1815409,25.1605,0
                56.1815409,25.1468264,0
                56.2090065,25.1446509,0
                56.2227393,25.1396782,0
                56.2368155,25.1278673,0
                56.2567281,25.126624,0
                56.2773274,25.1197855,0
                56.258788,25.1135683,0
                56.2649677,25.0983349,0
                56.2615346,25.0902511,0
                56.2560415,25.1008221,0
                56.2333823,25.1048637,0
                56.223426,25.0974022,0
                56.2227393,25.0818559,0
                56.240592,25.0743929,0
                56.2605047,25.0647526,0
                56.2787007,25.0753258,0
                56.2934634,25.0750148,0
                56.2975832,25.0582217,0
                56.3068529,25.014673,0
                56.3120027,25.0068948,0
                56.3198991,24.9981827,0
                56.324019,24.9904035,0
                56.3611917,24.9980906,0
                56.3806668,25.000672,0
                56.3703672,25.1545957,0
                56.3854733,25.3260153,0
                56.3713999,25.3802262,0
                56.3811836,25.5285683,0
                56.3703671,25.5541974,0
                56.3688466,25.6071446,0
                56.2988401,25.6139326,0
                56.2711476,25.6712203,0
              </coordinates>
            </LinearRing>
          </outerBoundaryIs>
        </Polygon>
      </Placemark>
      <Placemark>
        <name><![CDATA[Delivery Coverage - Umm al Quwain & Ras al Khaimah (Next Day)]]></name>
        <styleUrl>#poly-7CB342-1200-77-nodesc</styleUrl>
        <Polygon>
          <outerBoundaryIs>
            <LinearRing>
              <tessellate>1</tessellate>
              <coordinates>
                55.5369062,25.5099981,0
                55.546932,25.493479,0
                55.5504792,25.4865874,0
                55.5583756,25.4797691,0
                55.5786316,25.469231,0
                55.6074708,25.4546621,0
                55.611934,25.4441218,0
                55.6212037,25.4537321,0
                55.6435196,25.4676812,0
                55.6812851,25.4859675,0
                55.7235138,25.5228417,0
                55.7640259,25.5733316,0
                55.7640259,25.5826219,0
                55.7643693,25.6018195,0
                55.7554429,25.6132747,0
                55.7389634,25.6374199,0
                55.7506011,25.6497945,0
                55.7756637,25.6717663,0
                55.795233,25.6569125,0
                55.8264754,25.6442235,0
                55.8343718,25.6330808,0
                55.8508513,25.6061483,0
                55.8570311,25.6104827,0
                55.8786605,25.634938,0
                55.9064696,25.670838,0
                55.9163397,25.6740872,0
                55.9222624,25.6776454,0
                55.9215758,25.6819771,0
                55.9200207,25.6834627,0
                55.9178747,25.6871753,0
                55.9287755,25.6970756,0
                55.9349553,25.7012521,0
                55.9385601,25.6995506,0
                55.9419934,25.6902694,0
                55.9440533,25.6754179,0
                55.9536663,25.6587079,0
                55.963966,25.6488045,0
                55.9722058,25.6587079,0
                55.992508,25.652359,0
                56.000183,25.614164,0
                56.010414,25.608797,0
                56.0477368,25.6605647,0
                56.0497967,25.6853191,0
                56.0291973,25.7051189,0
                56.0257641,25.7459457,0
                56.0367504,25.7700641,0
                56.0497967,25.7892315,0
                56.0422436,25.8133411,0
                56.0257641,25.8392997,0
                56.0271374,25.8535127,0
                56.018406,25.862467,0
                56.0312573,25.8714311,0
                56.04036,25.873667,0
                56.0546032,25.8664883,0
                56.0738293,25.8961415,0
                56.055958,25.901432,0
                56.01622,25.885668,0
                55.9717362,25.8440017,0
                55.9435837,25.8047541,0
                55.8962052,25.7497238,0
                55.856201,25.727308,0
                55.822712,25.722824,0
                55.7956116,25.7231269,0
                55.7341569,25.6538235,0
                55.663089,25.6049156,0
                55.6339066,25.5705443,0
                55.643349,25.543119,0
                55.57254,25.531389,0
                55.5621522,25.5448368,0
                55.5837815,25.5807639,0
                55.5793183,25.6120364,0
                55.5573456,25.5875764,0
                55.5134003,25.5333751,0
                55.5339997,25.5144763,0
                55.5369062,25.5099981,0
              </coordinates>
            </LinearRing>
          </outerBoundaryIs>
          <innerBoundaryIs>
            <LinearRing>
              <tessellate>1</tessellate>
              <coordinates>
                55.548977,25.491396,0
                55.5339997,25.5147861,0
                55.5369062,25.5099981,0
                55.548977,25.491396,0
              </coordinates>
            </LinearRing>
          </innerBoundaryIs>
        </Polygon>
      </Placemark>
      <Placemark>
        <name>Delivery Coverage - Schedule Route (Thursday / Sunday)</name>
        <styleUrl>#poly-F9A825-1200-77-nodesc</styleUrl>
        <Polygon>
          <outerBoundaryIs>
            <LinearRing>
              <tessellate>1</tessellate>
              <coordinates>
                55.7261052,25.2006183,0
                55.7257213,25.1858503,0
                55.7325878,25.1734222,0
                55.7364047,25.1322568,0
                55.7127117,25.0961932,0
                55.697266,25.0719425,0
                55.6862795,25.0526605,0
                55.6773531,25.0346198,0
                55.6608735,25.0134652,0
                55.6492004,24.9935518,0
                55.6883393,24.9674104,0
                55.7673039,24.9132429,0
                55.7741703,24.8914446,0
                55.7796634,24.8378668,0
                55.7865299,24.8067062,0
                55.7917595,24.7829534,0
                55.8071293,24.7823954,0
                55.8321577,24.7720073,0
                55.8313067,24.7763273,0
                55.8167425,24.8073294,0
                55.8116387,24.9087333,0
                55.8504189,24.9658283,0
                55.9098251,24.9657043,0
                55.9598824,25.0069463,0
                56.0017785,24.9956052,0
                56.0290275,24.9738062,0
                56.0449686,24.9686602,0
                56.0406316,24.9481292,0
                56.058412,24.9498619,0
                56.0416656,24.9127212,0
                56.0418333,24.8861878,0
                56.0597506,24.8684482,0
                55.9787383,24.8954682,0
                55.9769373,24.8781472,0
                56.0351464,24.8111782,0
                56.0800676,24.7437172,0
                56.1110776,24.7387462,0
                56.200208,24.7848281,0
                56.204866,24.8506871,0
                56.2581163,24.8603761,0
                56.2791964,24.8751451,0
                56.2795395,24.8848571,0
                56.3043504,24.8846471,0
                56.3250675,24.8985961,0
                56.3490476,24.9343761,0
                56.3425466,24.9403381,0
                56.3232595,24.9714281,0
                56.3423906,24.9723011,0
                56.3478167,24.97698,0
                56.3755363,24.983907,0
                56.379677,25.0018854,0
                56.3230285,24.991617,0
                56.3189087,24.9993962,0
                56.3058624,25.0158865,0
                56.2924727,25.0762283,0
                56.2777099,25.0765393,0
                56.2595137,25.0659661,0
                56.221748,25.0830694,0
                56.2224347,25.0986157,0
                56.2323911,25.1060772,0
                56.2550505,25.1020356,0
                56.2605436,25.0914646,0
                56.2639768,25.0995484,0
                56.257797,25.1147818,0
                56.2763367,25.120999,0
                56.2557371,25.1278375,0
                56.2358244,25.1290808,0
                56.221748,25.1408917,0
                56.2080151,25.1458644,0
                56.1805492,25.1480399,0
                56.1805492,25.1617135,0
                56.2241514,25.158606,0
                56.2272414,25.1486615,0
                56.2406309,25.149283,0
                56.2533339,25.1564307,0
                56.2437209,25.1669961,0
                56.2275846,25.1750749,0
                56.2277777,25.1824053,0
                56.2277563,25.1829831,0
                56.227928,25.1878134,0
                56.1946256,25.2253999,0
                56.177116,25.2471388,0
                56.166473,25.2667006,0
                56.1585766,25.30209,0
                56.1513668,25.3160567,0
                56.169563,25.3461571,0
                56.183296,25.370356,0
                56.1622681,25.3787705,0
                56.1602933,25.3839271,0
                56.1587598,25.3886093,0
                56.1596291,25.3972448,0
                56.1601654,25.4039706,0
                56.1651862,25.4061025,0
                56.1714518,25.4041639,0
                56.1812361,25.4100567,0
                56.1877592,25.4196698,0
                56.1874159,25.4388936,0
                56.172653,25.4850802,0
                56.1778029,25.5039837,0
                56.1901626,25.5210252,0
                56.2028655,25.5297,0
                56.2087021,25.5389937,0
                56.2042388,25.5554109,0
                56.1850127,25.5572693,0
                56.1898193,25.5677997,0
                56.2085242,25.5787854,0
                56.2274007,25.6103071,0
                56.1791676,25.6213991,0
                56.1662236,25.6556412,0
                56.1555576,25.6847512,0
                56.1662644,25.7310842,0
                56.1554166,25.7616442,0
                56.1538376,25.7984732,0
                56.1406359,25.8149903,0
                56.1619367,25.8583332,0
                56.1720758,25.9192641,0
                56.1686658,25.9473952,0
                56.1903179,25.9724141,0
                56.1748889,25.9981871,0
                56.1806669,26.0194241,0
                56.1551917,26.0669082,0
                56.1252847,26.0560642,0
                56.0852226,26.0457212,0
                56.0174162,25.8868352,0
                56.0552504,25.9022332,0
                56.0728167,25.8965687,0
                56.0535905,25.8669155,0
                56.0393473,25.8740942,0
                56.0302445,25.8718583,0
                56.0173932,25.8628942,0
                56.0261246,25.8539399,0
                56.0247513,25.8397269,0
                56.0412307,25.8137683,0
                56.048784,25.7896587,0
                56.0357375,25.7704913,0
                56.0247512,25.7463729,0
                56.0281843,25.7055461,0
                56.0487839,25.6857463,0
                56.0467239,25.6609919,0
                56.013284,25.6132432,0
                55.9991699,25.6145912,0
                55.991495,25.6527862,0
                55.9711926,25.6591352,0
                55.9629529,25.6492318,0
                55.952653,25.6591352,0
                55.9430401,25.6758452,0
                55.9409801,25.6906967,0
                55.9375469,25.6999779,0
                55.9339421,25.7016794,0
                55.9277622,25.6975029,0
                55.9168613,25.6876026,0
                55.9190074,25.68389,0
                55.9212491,25.6780727,0
                55.9054563,25.6712653,0
                55.8776469,25.6353653,0
                55.8498377,25.6065756,0
                55.8254617,25.6446508,0
                55.7942192,25.6573399,0
                55.7746499,25.6721937,0
                55.7379494,25.6378473,0
                55.7633554,25.6022469,0
                55.763012,25.573759,0
                55.7257797,25.5283334,0
                55.6802708,25.4863948,0
                55.6208698,25.4561768,0
                55.6109194,25.4445493,0
                55.6268442,25.4347643,0
                55.6371439,25.4161599,0
                55.6501901,25.4043757,0
                55.6460702,25.3839057,0
                55.6577433,25.3839057,0
                55.706152,25.3593991,0
                55.7181682,25.3504018,0
                55.7291544,25.3305433,0
                55.7322435,25.3215428,0
                55.7277812,25.304474,0
                55.7064951,25.2765364,0
                55.7140484,25.2591498,0
                55.726408,25.2523187,0
                55.7257199,25.2200166,0
                55.7261052,25.2006183,0
              </coordinates>
            </LinearRing>
          </outerBoundaryIs>
        </Polygon>
      </Placemark>
      <Placemark>
        <name>Delivery Coverage - Schedule Routes (Thursday / Sunday)</name>
        <styleUrl>#poly-F9A825-1200-77-nodesc</styleUrl>
        <MultiGeometry>
          <Polygon>
            <outerBoundaryIs>
              <LinearRing>
                <tessellate>1</tessellate>
                <coordinates>
                  55.8051611,24.7265711,0
                  55.8058623,24.7399505,0
                  55.8123299,24.7402392,0
                  55.8051611,24.7265711,0
                </coordinates>
              </LinearRing>
            </outerBoundaryIs>
          </Polygon>
          <Polygon>
            <outerBoundaryIs>
              <LinearRing>
                <tessellate>1</tessellate>
                <coordinates>
                  55.833859,24.7715803,0
                  55.793461,24.7825263,0
                  55.6867292,24.7053346,0
                  55.622799,24.7185653,0
                  55.497284,24.6466793,0
                  55.300096,24.606278,0
                  55.1374128,24.6703971,0
                  54.8024348,24.8024369,0
                  54.7725307,24.844042,0
                  54.7700817,24.845293,0
                  54.7812013,24.8706063,0
                  54.7514164,24.8822183,0
                  54.7030522,24.8324415,0
                  54.6622541,24.8343934,0
                  54.6262537,24.8054248,0
                  54.6508221,24.7865932,0
                  54.6956569,24.785571,0
                  54.7331689,24.7566098,0
                  54.7551415,24.7014143,0
                  54.772651,24.695176,0
                  54.7762373,24.6997203,0
                  54.7961696,24.6863082,0
                  54.8231194,24.6778631,0
                  54.7681125,24.617021,0
                  54.8480629,24.6053394,0
                  54.8585034,24.563581,0
                  54.8709943,24.5449159,0
                  54.8886941,24.5434891,0
                  54.9134964,24.5371743,0
                  54.9138779,24.503248,0
                  54.9127267,24.492261,0
                  54.8488686,24.4985095,0
                  54.847152,24.4607017,0
                  54.8490403,24.4238204,0
                  54.9156263,24.4168082,0
                  55.0405958,24.4143072,0
                  54.8420022,24.2739965,0
                  54.8371956,24.2486434,0
                  55.0649644,24.1966167,0
                  55.1804729,24.1912671,0
                  55.5277635,24.2298073,0
                  55.5449297,24.2573553,0
                  55.5861284,24.2805159,0
                  55.6067278,24.3186905,0
                  55.6417467,24.3168133,0
                  55.6403734,24.2629893,0
                  55.6788256,24.2648673,0
                  55.7310106,24.2874007,0
                  55.7028581,24.3424656,0
                  55.7248308,24.3756181,0
                  55.7708361,24.37124,0
                  55.7962419,24.3731163,0
                  55.8105221,24.3510348,0
                  55.8357815,24.3276997,0
                  55.8352102,24.3475993,0
                  55.835327,24.3923643,0
                  55.835389,24.4100113,0
                  55.828568,24.4099983,0
                  55.821617,24.4402693,0
                  55.786438,24.4861913,0
                  55.766026,24.5296313,0
                  55.768757,24.5723903,0
                  55.817517,24.6152593,0
                  55.794949,24.6368713,0
                  55.837323,24.6705263,0
                  55.829659,24.7129903,0
                  55.833859,24.7715803,0
                </coordinates>
              </LinearRing>
            </outerBoundaryIs>
          </Polygon>
        </MultiGeometry>
      </Placemark>
      <Placemark>
        <name>Delivery Coverage - Western Region Schedule (Thursday / Sunday)</name>
        <styleUrl>#poly-F9A825-1200-77-nodesc</styleUrl>
        <Polygon>
          <outerBoundaryIs>
            <LinearRing>
              <tessellate>1</tessellate>
              <coordinates>
                54.4341067,24.2986601,0
                54.2607515,24.4142997,0
                53.3996927,24.2336155,0
                52.5906771,24.2040437,0
                51.8562782,23.979895,0
                51.7869236,24.2714,0
                51.7480624,24.2976692,0
                51.7338156,24.3017017,0
                51.6565436,24.3292132,0
                51.5949292,24.3891821,0
                51.5759503,24.3722039,0
                51.58582,24.1431058,0
                52.5801645,22.9385422,0
                55.1388339,22.6276079,0
                55.206649,22.7095589,0
                55.2270576,22.7921499,0
                55.2247141,22.8988416,0
                55.2166934,23.0185479,0
                55.2290911,23.0485299,0
                55.23144,23.1110279,0
                55.2793491,23.177579,0
                55.4006381,23.3929282,0
                55.4153703,23.3825982,0
                55.4320173,23.4039092,0
                55.4452393,23.4520392,0
                55.5151784,23.5488504,0
                55.5667105,23.6192585,0
                55.5705173,23.7086505,0
                55.5631592,23.7299995,0
                55.534591,23.7547394,0
                55.5341478,23.8439094,0
                55.4992808,23.9154504,0
                55.4838275,23.9406084,0
                55.5777198,23.9903005,0
                55.7207098,24.0540418,0
                55.7122984,24.0567067,0
                55.7128134,24.0786501,0
                55.6832875,24.0894636,0
                55.688953,24.1010595,0
                55.6674944,24.1117149,0
                55.6621728,24.1283224,0
                55.6509289,24.1347457,0
                55.6252655,24.1270689,0
                55.6113608,24.1463373,0
                55.6498131,24.1654463,0
                55.5953974,24.1757831,0
                55.577715,24.1966096,0
                55.5559986,24.1997429,0
                55.5157449,24.1818901,0
                55.0549683,24.1542902,0
                54.9555335,24.1596878,0
                54.8615661,24.1888319,0
                54.8450866,24.1299403,0
                54.6624378,24.1756772,0
                54.6335988,24.1581359,0
                54.4914622,24.2201453,0
                54.4708623,24.210127,0
                54.4502633,24.2151356,0
                54.4175426,24.2427716,0
                54.3912066,24.2627811,0
                54.3878955,24.2716401,0
                54.4341067,24.2986601,0
              </coordinates>
            </LinearRing>
          </outerBoundaryIs>
        </Polygon>
      </Placemark>
      <Placemark>
        <name>Delivery Coverage - Dubai (4HR)</name>
        <styleUrl>#poly-0288D1-1200-77-nodesc</styleUrl>
        <Polygon>
          <outerBoundaryIs>
            <LinearRing>
              <tessellate>1</tessellate>
              <coordinates>
                55.2227966,24.9553684,0
                55.2361846,24.9513022,0
                55.2420201,24.9828814,0
                55.2653691,25.0051234,0
                55.2921838,24.9855876,0
                55.3138357,25.0052209,0
                55.2906761,25.0274823,0
                55.314208,25.0534767,0
                55.3789844,25.0773547,0
                55.5116205,25.1737237,0
                55.5506372,25.2066867,0
                55.5627371,25.2297387,0
                55.3891592,25.3055791,0
                55.374042,25.2952909,0
                55.3621003,25.2967193,0
                55.3576153,25.2902638,0
                55.3503618,25.2936485,0
                55.3478656,25.3060159,0
                55.3495748,25.3222627,0
                55.3384168,25.3062795,0
                55.3266257,25.2997989,0
                55.2944161,25.2819857,0
                55.2641288,25.2941048,0
                55.2427557,25.2346488,0
                55.2323651,25.2159873,0
                55.1766564,25.1345248,0
                55.1189786,25.1575227,0
                55.0915129,25.1090355,0
                55.1052456,25.0816753,0
                55.0937127,25.0391067,0
                55.0952895,25.021959,0
                55.0961091,24.9881607,0
                55.1189887,24.9815403,0
                55.1395737,24.9759065,0
                55.183866,24.9617468,0
                55.2023882,24.9580943,0
                55.2227966,24.9553684,0
              </coordinates>
            </LinearRing>
          </outerBoundaryIs>
        </Polygon>
      </Placemark>
      <Placemark>
        <name/>
      </Placemark>
      <Placemark>
        <name>Pick Up Coverage - Dubai(Same Day)</name>
        <styleUrl>#poly-1A237E-1200-77-nodesc</styleUrl>
        <Polygon>
          <outerBoundaryIs>
            <LinearRing>
              <tessellate>1</tessellate>
              <coordinates>
                55.0947354,24.9884713,0
                55.2348113,24.9516128,0
                55.2406468,24.983192,0
                55.2639959,25.005434,0
                55.2908106,24.9858982,0
                55.3124626,25.0055315,0
                55.2893029,25.0277929,0
                55.3128349,25.0537873,0
                55.3776115,25.0776653,0
                55.3893063,25.0855227,0
                55.3961728,25.07806,0
                55.3932543,25.0741733,0
                55.3869026,25.069664,0
                55.3805513,25.0645325,0
                55.3838132,25.056913,0
                55.3934262,25.0482043,0
                55.4054417,25.054425,0
                55.4153989,25.063755,0
                55.3941129,25.0898758,0
                55.5492647,25.2069973,0
                55.5626817,25.2283409,0
                55.3877863,25.3058897,0
                55.372669,25.2956015,0
                55.3607273,25.2970299,0
                55.3562423,25.2905744,0
                55.3489888,25.2939591,0
                55.3464926,25.3063265,0
                55.3482018,25.3225733,0
                55.3382748,25.3072764,0
                55.2942737,25.2829824,0
                55.2640767,25.2927064,0
                55.242704,25.2332503,0
                55.1766056,25.1331262,0
                55.1189284,25.156124,0
                55.0914631,25.1076368,0
                55.1051959,25.0802766,0
                55.0936631,25.0377079,0
                55.0947354,24.9884713,0
              </coordinates>
            </LinearRing>
          </outerBoundaryIs>
        </Polygon>
      </Placemark>
      <Placemark>
        <name>Pick Up Coverage - Dubai(4 Hour)</name>
        <styleUrl>#poly-7CB342-1200-77-nodesc</styleUrl>
        <Polygon>
          <outerBoundaryIs>
            <LinearRing>
              <tessellate>1</tessellate>
              <coordinates>
                55.0947354,24.9884713,0
                55.2348113,24.9516128,0
                55.2406468,24.983192,0
                55.2639959,25.005434,0
                55.2908106,24.9858982,0
                55.3124626,25.0055315,0
                55.2893029,25.0277929,0
                55.3128349,25.0537873,0
                55.3893063,25.0855227,0
                55.5492647,25.2069973,0
                55.5626817,25.2283409,0
                55.3877863,25.3058897,0
                55.372669,25.2956015,0
                55.3607273,25.2970299,0
                55.3562423,25.2905744,0
                55.3489888,25.2939591,0
                55.3464926,25.3063265,0
                55.3482018,25.3225733,0
                55.3382748,25.3072764,0
                55.2942737,25.2829824,0
                55.2640767,25.2927064,0
                55.242704,25.2332503,0
                55.1766056,25.1331262,0
                55.1189284,25.156124,0
                55.0901392,25.1093461,0
                55.1051959,25.0802766,0
                55.0936631,25.0377079,0
                55.0947354,24.9884713,0
              </coordinates>
            </LinearRing>
          </outerBoundaryIs>
        </Polygon>
      </Placemark>
      <Placemark>
        <name>Pick Up Coverage - Dubai(Next Day)</name>
        <styleUrl>#poly-EDA29B-1200-77-nodesc</styleUrl>
        <Polygon>
          <outerBoundaryIs>
            <LinearRing>
              <tessellate>1</tessellate>
              <coordinates>
                55.4325157,24.9922628,0
                55.4489952,24.9935075,0
                55.4654746,25.0040869,0
                55.3946278,25.0897206,0
                55.547872,25.200573,0
                55.5572502,25.2134475,0
                55.5631964,25.2281857,0
                55.3883012,25.3057345,0
                55.373184,25.2954463,0
                55.3612423,25.2968747,0
                55.3567573,25.2904192,0
                55.3495038,25.2938039,0
                55.3470076,25.3061713,0
                55.3498795,25.3246832,0
                55.3387898,25.3071212,0
                55.2947888,25.2828272,0
                55.2645918,25.2925512,0
                55.2432191,25.2330951,0
                55.1771208,25.132971,0
                55.1194437,25.1559688,0
                55.0919784,25.1074816,0
                55.1057112,25.0801214,0
                55.0941784,25.0375527,0
                55.0952507,24.9883161,0
                55.0761471,24.9530484,0
                54.9819051,24.9184921,0
                55.0636158,24.8513754,0
                55.101038,24.808065,0
                55.1648959,24.8512196,0
                55.1916751,24.8758282,0
                55.2191408,24.9128875,0
                55.235277,24.9533597,0
                55.2411619,24.9830368,0
                55.264511,25.0052788,0
                55.2913257,24.985743,0
                55.3370721,24.9499356,0
                55.3889055,24.9521204,0
                55.4325157,24.9922628,0
              </coordinates>
            </LinearRing>
          </outerBoundaryIs>
        </Polygon>
      </Placemark>
      <Placemark>
        <name>Pick Up Coverage - Sharjah(Next Day)</name>
        <styleUrl>#poly-FBC02D-1200-77-nodesc</styleUrl>
        <Polygon>
          <outerBoundaryIs>
            <LinearRing>
              <tessellate>1</tessellate>
              <coordinates>
                55.3503931,25.3256148,0
                55.5637116,25.2291173,0
                55.6377764,25.2089599,0
                55.6954551,25.3346988,0
                55.6694528,25.3438972,0
                55.6448196,25.3543324,0
                55.5982934,25.3733253,0
                55.595928,25.3715042,0
                55.5908163,25.3681321,0
                55.5545024,25.3644865,0
                55.5199821,25.3592149,0
                55.4986652,25.3576676,0
                55.4841821,25.3613997,0
                55.45796,25.3769315,0
                55.4522093,25.3808477,0
                55.4449998,25.3849216,0
                55.4364173,25.3896912,0
                55.4308814,25.3929862,0
                55.428199,25.3947887,0
                55.4260317,25.3969013,0
                55.4108386,25.3905407,0
                55.3995481,25.3892175,0
                55.3620316,25.3655268,0
                55.3503931,25.3256148,0
              </coordinates>
            </LinearRing>
          </outerBoundaryIs>
        </Polygon>
      </Placemark>
      <Placemark>
        <name><![CDATA[Pick Up Coverage - Abu Dhabi (Next Day & Same Day)]]></name>
        <styleUrl>#poly-F48FB1-1200-77-nodesc</styleUrl>
        <Polygon>
          <outerBoundaryIs>
            <LinearRing>
              <tessellate>1</tessellate>
              <coordinates>
                54.8774708,24.2181895,0
                54.8836856,24.2373216,0
                54.8365086,24.2486431,0
                54.8426877,24.2721181,0
                54.8404524,24.3225506,0
                54.8430511,24.3748329,0
                54.8442111,24.4118035,0
                54.8483533,24.4238201,0
                54.8495541,24.4966311,0
                54.9134112,24.4903826,0
                54.9147844,24.5341152,0
                54.8716794,24.5430375,0
                54.8591888,24.5617026,0
                54.8488674,24.6015584,0
                54.7687991,24.6151426,0
                54.8238053,24.6759847,0
                54.7762558,24.6908022,0
                54.7558284,24.6995359,0
                54.7338561,24.7547314,0
                54.7029574,24.7796705,0
                54.6895681,24.7793588,0
                54.6717902,24.7546436,0
                54.6366972,24.7341529,0
                54.6576396,24.7338411,0
                54.6388888,24.7256136,0
                54.6538631,24.6851873,0
                54.638757,24.6786363,0
                54.6401303,24.6574212,0
                54.6571034,24.6576336,0
                54.6490565,24.6421316,0
                54.6299779,24.6225156,0
                54.6060441,24.6115685,0
                54.6091839,24.5967311,0
                54.6378698,24.6037336,0
                54.6099184,24.5466075,0
                54.6185013,24.5388,0
                54.6032605,24.5175447,0
                54.5738136,24.5094802,0
                54.5285999,24.5207526,0
                54.5460613,24.5363014,0
                54.5429715,24.5447336,0
                54.5117295,24.5481688,0
                54.5048632,24.568778,0
                54.4828909,24.5881351,0
                54.4681282,24.5881351,0
                54.4537089,24.5700269,0
                54.3507137,24.5325537,0
                54.2999026,24.4963188,0
                54.2841099,24.4644484,0
                54.3150086,24.4075617,0
                54.3498434,24.4033207,0
                54.4273814,24.3701247,0
                54.4376446,24.2874346,0
                54.3886144,24.2681546,0
                54.4526788,24.21264,0
                54.4732774,24.2076314,0
                54.4938769,24.2176497,0
                54.6360105,24.1556401,0
                54.6648492,24.1731813,0
                54.8474942,24.127444,0
                54.8639734,24.1863355,0
                54.8686751,24.1985344,0
                54.8774708,24.2181895,0
              </coordinates>
            </LinearRing>
          </outerBoundaryIs>
        </Polygon>
      </Placemark>
      <Placemark>
        <name>Pick Up Coverage - Al Ain</name>
        <styleUrl>#poly-000000-1200-77-nodesc</styleUrl>
        <Polygon>
          <outerBoundaryIs>
            <LinearRing>
              <tessellate>1</tessellate>
              <coordinates>
                55.5880158,24.2806721,0
                55.5468171,24.2575115,0
                55.5464738,24.2427991,0
                55.5538987,24.2294956,0
                55.5650979,24.2139974,0
                55.5809778,24.1961466,0
                55.5986601,24.1753201,0
                55.6530756,24.1649832,0
                55.6146235,24.1458743,0
                55.628528,24.1266058,0
                55.6541913,24.1342826,0
                55.6654353,24.1278592,0
                55.6707567,24.1112517,0
                55.7027054,24.0986149,0
                55.848275,24.1568943,0
                55.8712777,24.1990207,0
                55.8700761,24.2147558,0
                55.8553989,24.2113897,0
                55.8359827,24.2015055,0
                55.7671264,24.2430012,0
                55.7995092,24.2862808,0
                55.7583103,24.3238282,0
                55.7328982,24.2875569,0
                55.6807132,24.2650235,0
                55.6422609,24.2631455,0
                55.6436342,24.3169695,0
                55.6086153,24.3188467,0
                55.5880158,24.2806721,0
              </coordinates>
            </LinearRing>
          </outerBoundaryIs>
        </Polygon>
      </Placemark>
    </Folder>
    <Folder>
      <name>Non-Coverage Areas - Freezones</name>
      <Placemark>
        <name>Hamriyah Freezone</name>
        <styleUrl>#poly-000000-1200-77-nodesc</styleUrl>
        <Polygon>
          <outerBoundaryIs>
            <LinearRing>
              <tessellate>1</tessellate>
              <coordinates>
                55.4732635,25.4512734,0
                55.4854514,25.442128,0
                55.5352332,25.4466233,0
                55.5923965,25.4258504,0
                55.6035545,25.442283,0
                55.5587508,25.4613481,0
                55.5288818,25.4535984,0
                55.520642,25.4539084,0
                55.5134322,25.4563884,0
                55.522187,25.471267,0
                55.5092275,25.4785902,0
                55.4948944,25.4747543,0
                55.4888847,25.4934265,0
                55.4748084,25.4686324,0
                55.4732635,25.4512734,0
              </coordinates>
            </LinearRing>
          </outerBoundaryIs>
        </Polygon>
      </Placemark>
      <Placemark>
        <name>Dubai Airport Freezone</name>
        <styleUrl>#poly-000000-1200-77-nodesc</styleUrl>
        <Polygon>
          <outerBoundaryIs>
            <LinearRing>
              <tessellate>1</tessellate>
              <coordinates>
                55.3703855,25.2614369,0
                55.3702631,25.2612307,0
                55.3714003,25.2586497,0
                55.3742328,25.2587856,0
                55.3756704,25.2607844,0
                55.3716578,25.2631325,0
                55.3703855,25.2614369,0
              </coordinates>
            </LinearRing>
          </outerBoundaryIs>
        </Polygon>
      </Placemark>
      <Placemark>
        <name>Sharjah Freezone (Saif)</name>
        <styleUrl>#poly-000000-1200-77-nodesc</styleUrl>
        <Polygon>
          <outerBoundaryIs>
            <LinearRing>
              <tessellate>1</tessellate>
              <coordinates>
                55.4728243,25.3313104,0
                55.4800776,25.327723,0
                55.5042813,25.3213412,0
                55.5076071,25.3264228,0
                55.4980589,25.3314657,0
                55.4987884,25.3325905,0
                55.4893467,25.3380595,0
                55.4941962,25.3453899,0
                55.487158,25.3503155,0
                55.4728243,25.3313104,0
              </coordinates>
            </LinearRing>
          </outerBoundaryIs>
        </Polygon>
      </Placemark>
      <Placemark>
        <name>Jebel Ali Freezone</name>
        <styleUrl>#poly-000000-1200-77-nodesc</styleUrl>
        <Polygon>
          <outerBoundaryIs>
            <LinearRing>
              <tessellate>1</tessellate>
              <coordinates>
                55.0200308,24.9878824,0
                55.0623527,24.9500947,0
                55.0760483,24.9576237,0
                55.0810152,24.9657214,0
                55.0900686,24.9850817,0
                55.0941885,25.0168194,0
                55.0886953,25.0354848,0
                55.0763357,25.0233526,0
                55.0729025,25.0267746,0
                55.04578,25.021486,0
                55.0498999,25.0028185,0
                55.0557364,24.9953507,0
                55.0729025,25.0077967,0
                55.0753058,25.0043742,0
                55.0581396,24.9891271,0
                55.0619162,24.9835257,0
                55.0790823,24.9975288,0
                55.0828589,24.9947283,0
                55.0550497,24.9713884,0
                55.0526465,24.9723221,0
                55.0488699,24.976368,0
                55.0560797,24.9813473,0
                55.0481833,25.0003292,0
                55.0416601,25.0053076,0
                55.0454367,24.9956618,0
                55.0200308,24.9878824,0
              </coordinates>
            </LinearRing>
          </outerBoundaryIs>
        </Polygon>
      </Placemark>
      <Placemark>
        <name>Ajman Freezone</name>
        <styleUrl>#poly-000000-1200-77-nodesc</styleUrl>
        <Polygon>
          <outerBoundaryIs>
            <LinearRing>
              <tessellate>1</tessellate>
              <coordinates>
                55.4668833,25.3984718,0
                55.4665642,25.395747,0
                55.4575389,25.3968324,0
                55.4541093,25.400266,0
                55.4562032,25.4218858,0
                55.4512713,25.423071,0
                55.4504239,25.4205558,0
                55.4534389,25.4199011,0
                55.4515718,25.4059633,0
                55.452287,25.4008713,0
                55.4547186,25.3967097,0
                55.4589905,25.3950487,0
                55.4704024,25.3938971,0
                55.4722478,25.3972312,0
                55.463282,25.4003212,0
                55.4631814,25.3985494,0
                55.4668833,25.3984718,0
              </coordinates>
            </LinearRing>
          </outerBoundaryIs>
        </Polygon>
      </Placemark>
    </Folder>
  </Document>
</kml>
